[
  {
    "id": 1,
    "name": "仁濟醫院蔡衍濤小學",
    "nameEn": "YAN CHAI HOSPITAL CHOI HIN TO PRIMARY SCHOOL",
    "type": "primary",
    "district": "大埔區",
    "website": "http://www.ychchtps.edu.hk"
  },
  {
    "id": 2,
    "name": "仁愛堂劉皇發夫人小學",
    "nameEn": "YAN OI TONG MADAM LAU WONG FAT PRIMARY SCHOOL",
    "type": "primary",
    "district": "屯門區",
    "website": "http://www.yotps.edu.hk"
  },
  {
    "id": 3,
    "name": "循理會美林小學",
    "nameEn": "FREE METHODIST MEI LAM PRIMARY SCHOOL",
    "type": "primary",
    "district": "沙田區",
    "website": "http://www.fmml.edu.hk"
  },
  {
    "id": 4,
    "name": "嘉諾撒聖家學校",
    "nameEn": "HOLY FAMILY CANOSSIAN SCHOOL",
    "type": "primary",
    "district": "九龍城區",
    "website": "N.A."
  },
  {
    "id": 5,
    "name": "培基小學",
    "nameEn": "STEWARDS POOI KEI PRIMARY SCHOOL",
    "type": "primary",
    "district": "沙田區",
    "website": "N.A."
  },
  {
    "id": 6,
    "name": "香港道教聯合會雲泉學校",
    "nameEn": "HONG KONG TAOIST ASSOCIATION WUN TSUEN SCHOOL",
    "type": "primary",
    "district": "觀塘區",
    "website": "http://www.hktawts.edu.hk"
  },
  {
    "id": 7,
    "name": "浸信會孔憲紹天虹小學",
    "nameEn": "BAPTIST HUNG HIN SHIU RAINBOW PRIMARY SCHOOL",
    "type": "primary",
    "district": "黃大仙區",
    "website": "http://www.rainbow.edu.hk"
  },
  {
    "id": 8,
    "name": "大坑東宣道小學",
    "nameEn": "ALLIANCE PRIMARY SCHOOL, TAI HANG TUNG",
    "type": "primary",
    "district": "深水埗區",
    "website": "http://www.apstht.edu.hk"
  },
  {
    "id": 9,
    "name": "香港中文大學校友會聯會張煊昌學校",
    "nameEn": "CUHK FEDERATION OF ALUMNI ASSOCIATION THOMAS CHEUNG SCHOOL",
    "type": "primary",
    "district": "沙田區",
    "website": "http://www.tcps.edu.hk"
  },
  {
    "id": 10,
    "name": "東華三院高可寧紀念小學",
    "nameEn": "T.W.G.HS KO HO NING MEMORIAL PRIMARY SCHOOL",
    "type": "primary",
    "district": "葵青區",
    "website": "http://www.twghkhnmp.edu.hk"
  },
  {
    "id": 11,
    "name": "聖公會李兆強小學",
    "nameEn": "S.K.H. LEE SHIU KEUNG PRIMARY SCHOOL",
    "type": "primary",
    "district": "觀塘區",
    "website": "http://www.skhlsk.edu.hk"
  },
  {
    "id": 12,
    "name": "亞斯理衛理小學",
    "nameEn": "ASBURY METHODIST PRIMARY SCHOOL",
    "type": "primary",
    "district": "葵青區",
    "website": "http://www.asbury.edu.hk"
  },
  {
    "id": 13,
    "name": "聖公會基樂小學",
    "nameEn": "S.K.H. KEI LOK PRIMARY SCHOOL",
    "type": "primary",
    "district": "觀塘區",
    "website": "http://www.skhklps.edu.hk"
  },
  {
    "id": 14,
    "name": "合一堂學校",
    "nameEn": "HOP YAT CHURCH SCHOOL",
    "type": "primary",
    "district": "九龍城區",
    "website": "http://www.hycs.edu.hk"
  },
  {
    "id": 15,
    "name": "中華基督教會基華小學(九龍塘)",
    "nameEn": "THE CHURCH OF CHRIST IN CHINA KEI WA PRIMARY SCHOOL (KOWLOON TONG)",
    "type": "primary",
    "district": "九龍城區",
    "website": "http://www.kwpskt.edu.hk"
  },
  {
    "id": 16,
    "name": "基督教培恩小學",
    "nameEn": "CHRISTIAN PUI YAN PRIMARY SCHOOL",
    "type": "primary",
    "district": "元朗區",
    "website": "https://www.cpyps.edu.hk"
  },
  {
    "id": 17,
    "name": "中華基督教會全完第一小學",
    "nameEn": "THE CHURCH OF CHRIST IN CHINA CHUEN YUEN FIRST PRIMARY SCHOOL",
    "type": "primary",
    "district": "荃灣區",
    "website": "http://www.cyf.edu.hk"
  },
  {
    "id": 18,
    "name": "中華基督教會蒙黃花沃紀念小學",
    "nameEn": "THE CHURCH OF CHRIST IN CHINA MONG WONG FAR YOK MEMORIAL PRIMARY SCHOOL",
    "type": "primary",
    "district": "屯門區",
    "website": "http://www.cccmwfys.edu.hk"
  },
  {
    "id": 19,
    "name": "保良局蕭漢森小學",
    "nameEn": "PO LEUNG KUK SIU HON-SUM PRIMARY SCHOOL",
    "type": "primary",
    "district": "沙田區",
    "website": "https://www.plkshs.edu.hk"
  },
  {
    "id": 20,
    "name": "東華三院鶴山學校",
    "nameEn": "TUNG WAH GROUP OF HOSPITALS HOK SHAN SCHOOL",
    "type": "primary",
    "district": "南區",
    "website": "http://www.hokshan.edu.hk"
  },
  {
    "id": 21,
    "name": "沙田循道衛理小學",
    "nameEn": "SHA TIN METHODIST PRIMARY SCHOOL",
    "type": "primary",
    "district": "沙田區",
    "website": "http://www.smps.edu.hk"
  },
  {
    "id": 22,
    "name": "東涌天主教學校",
    "nameEn": "TUNG CHUNG CATHOLIC SCHOOL",
    "type": "primary",
    "district": "離島區",
    "website": "http://www.tccs.edu.hk"
  },
  {
    "id": 23,
    "name": "東莞學校",
    "nameEn": "TUNG KOON SCHOOL",
    "type": "primary",
    "district": "北區",
    "website": "http://www.tks.edu.hk"
  },
  {
    "id": 24,
    "name": "合一堂學校",
    "nameEn": "HOP YAT CHURCH SCHOOL",
    "type": "primary",
    "district": "九龍城區",
    "website": "http://www.hycs.edu.hk"
  },
  {
    "id": 25,
    "name": "五旬節聖潔會永光小學",
    "nameEn": "THE PENTECOSTAL HOLINESS CHURCH WING KWONG JUNIOR SCHOOL",
    "type": "primary",
    "district": "大埔區",
    "website": "https://wkjs.edu.hk"
  },
  {
    "id": 26,
    "name": "嘉諾撒聖心學校",
    "nameEn": "SACRED HEART CANOSSIAN SCHOOL",
    "type": "primary",
    "district": "CENTRAL AND WESTERN",
    "website": "http://www.shcs.edu.hk"
  },
  {
    "id": 27,
    "name": "長沙灣天主教小學",
    "nameEn": "CHEUNG SHA WAN CATHOLIC PRIMARY SCHOOL",
    "type": "primary",
    "district": "深水埗區",
    "website": "https://www.cswcps.edu.hk"
  },
  {
    "id": 28,
    "name": "救世軍田家炳學校",
    "nameEn": "THE SALVATION ARMY TIN KA PING SCHOOL",
    "type": "primary",
    "district": "沙田區",
    "website": "http://satkp.edu.hk"
  },
  {
    "id": 29,
    "name": "天主教明德學校",
    "nameEn": "MENG TAK CATHOLIC SCHOOL",
    "type": "primary",
    "district": "東區",
    "website": "https://www.mengtak.edu.hk"
  },
  {
    "id": 30,
    "name": "嘉諾撒培德學校",
    "nameEn": "PUI TAK CANOSSIAN PRIMARY SCHOOL",
    "type": "primary",
    "district": "南區",
    "website": "http://www.ptcps.edu.hk"
  },
  {
    "id": 31,
    "name": "沙田圍胡素貞博士紀念學校",
    "nameEn": "SHA TIN WAI DR. CATHERINE F. WOO MEMORIAL SCHOOL",
    "type": "primary",
    "district": "沙田區",
    "website": "http://www.stwdcfwms.edu.hk"
  },
  {
    "id": 32,
    "name": "聖士提反女子中學附屬小學",
    "nameEn": "ST. STEPHEN'S GIRLS' PRIMARY SCHOOL",
    "type": "primary",
    "district": "CENTRAL AND WESTERN",
    "website": "http://www.ssgps.edu.hk"
  },
  {
    "id": 33,
    "name": "中華基督教會長洲堂錦江小學",
    "nameEn": "THE CHURCH OF CHRIST IN CHINA CHEUNG CHAU CHURCH KAM KONG PRIMARY SCHOOL",
    "type": "primary",
    "district": "離島區",
    "website": "http://www.ccckamkongsch.edu.hk"
  },
  {
    "id": 34,
    "name": "聖公會青衣主恩小學",
    "nameEn": "S.K.H. TSING YI CHU YAN PRIMARY SCHOOL",
    "type": "primary",
    "district": "葵青區",
    "website": "http://www.tycy.edu.hk"
  },
  {
    "id": 35,
    "name": "聖公會主恩小學",
    "nameEn": "S.K.H. CHU YAN PRIMARY SCHOOL",
    "type": "primary",
    "district": "葵青區",
    "website": "http://www.chuyan.edu.hk"
  },
  {
    "id": 36,
    "name": "中華傳道會呂明才小學",
    "nameEn": "CNEC LUI MING CHOI PRIMARY SCHOOL",
    "type": "primary",
    "district": "葵青區",
    "website": "http://www.cneclmc.edu.hk"
  },
  {
    "id": 37,
    "name": "迦密梁省德學校",
    "nameEn": "CARMEL LEUNG SING TAK SCHOOL",
    "type": "primary",
    "district": "觀塘區",
    "website": "http://www.clst.edu.hk"
  },
  {
    "id": 38,
    "name": "路德會呂祥光小學",
    "nameEn": "LUI CHEUNG KWONG LUTHERAN PRIMARY SCHOOL",
    "type": "primary",
    "district": "屯門區",
    "website": "http://www.lckps.edu.hk"
  },
  {
    "id": 39,
    "name": "大埔崇德黃建常紀念學校",
    "nameEn": "SUNG TAK WONG KIN SHEUNG MEMORIAL SCHOOL",
    "type": "primary",
    "district": "大埔區",
    "website": "http://www.wks.edu.hk"
  },
  {
    "id": 40,
    "name": "香港青年協會李兆基小學",
    "nameEn": "HKFYG LEE SHAU KEE PRIMARY SCHOOL",
    "type": "primary",
    "district": "元朗區",
    "website": "http://www.lskps.edu.hk"
  },
  {
    "id": 41,
    "name": "樂華天主教小學",
    "nameEn": "LOK WAH CATHOLIC PRIMARY SCHOOL",
    "type": "primary",
    "district": "觀塘區",
    "website": "http://www.lwcps.edu.hk"
  },
  {
    "id": 42,
    "name": "聖公會仁立紀念小學",
    "nameEn": "S.K.H. YAN LAAP MEMORIAL PRIMARY SCHOOL",
    "type": "primary",
    "district": "葵青區",
    "website": "http://www.ylm.edu.hk"
  },
  {
    "id": 43,
    "name": "道教青松小學",
    "nameEn": "TAOIST CHING CHUNG PRIMARY SCHOOL",
    "type": "primary",
    "district": "屯門區",
    "website": "http://www.tccps.edu.hk"
  },
  {
    "id": 44,
    "name": "青松侯寶垣小學",
    "nameEn": "CHING CHUNG HAU PO WOON PRIMARY SCHOOL",
    "type": "primary",
    "district": "離島區",
    "website": "http://www.cchpwps.edu.hk"
  },
  {
    "id": 45,
    "name": "保良局馮晴紀念小學",
    "nameEn": "PO LEUNG KUK FUNG CHING MEMORIAL PRIMARY SCHOOL",
    "type": "primary",
    "district": "西貢區",
    "website": "http://www.plkfcmps.edu.hk"
  },
  {
    "id": 46,
    "name": "香海正覺蓮社佛教黃藻森學校",
    "nameEn": "HHCKLA BUDDHIST WONG CHO SUM SCHOOL",
    "type": "primary",
    "district": "西貢區",
    "website": "http://www.bwcss.edu.hk"
  },
  {
    "id": 47,
    "name": "柏立基教育學院校友會何壽基學校",
    "nameEn": "SIR ROBERT BLACK COLLEGE OF EDUCATION PAST STUDENTS' ASSOCIATION HO SAU KI SCHOOL",
    "type": "primary",
    "district": "屯門區",
    "website": "http://www.hosauki.edu.hk"
  },
  {
    "id": 48,
    "name": "粉嶺公立學校",
    "nameEn": "FANLING PUBLIC SCHOOL",
    "type": "primary",
    "district": "北區",
    "website": "http://www.flp.edu.hk"
  },
  {
    "id": 49,
    "name": "迦密愛禮信小學",
    "nameEn": "CARMEL ALISON LAM PRIMARY SCHOOL",
    "type": "primary",
    "district": "沙田區",
    "website": "http://www.calps.edu.hk"
  },
  {
    "id": 50,
    "name": "吳氏宗親總會泰伯紀念學校",
    "nameEn": "NG CLAN'S ASSOCIATION TAI PAK MEMORIAL SCHOOL",
    "type": "primary",
    "district": "沙田區",
    "website": "http://www.taipak.edu.hk"
  },
  {
    "id": 51,
    "name": "台山商會學校",
    "nameEn": "TOI SHAN ASSOCIATION PRIMARY SCHOOL",
    "type": "primary",
    "district": "屯門區",
    "website": "http://www.ts.edu.hk"
  },
  {
    "id": 52,
    "name": "五旬節于良發小學",
    "nameEn": "PENTECOSTAL YU LEUNG FAT PRIMARY SCHOOL",
    "type": "primary",
    "district": "北區",
    "website": "http://www.pylfps.edu.hk"
  },
  {
    "id": 53,
    "name": "三水同鄉會禤景榮學校",
    "nameEn": "SAM SHUI NATIVES ASSOCIATION HUEN KING WING SCHOOL",
    "type": "primary",
    "district": "大埔區",
    "website": "http://ssnahkws.edu.hk"
  },
  {
    "id": 54,
    "name": "沙田崇真學校",
    "nameEn": "SHATIN TSUNG TSIN SCHOOL",
    "type": "primary",
    "district": "沙田區",
    "website": "http://www.stts.edu.hk"
  },
  {
    "id": 55,
    "name": "仁濟醫院陳耀星小學",
    "nameEn": "YAN CHAI HOSPITAL CHAN IU SENG PRIMARY SCHOOL",
    "type": "primary",
    "district": "西貢區",
    "website": "http://www.ychcisps.edu.hk"
  },
  {
    "id": 56,
    "name": "仁濟醫院趙曾學韞小學",
    "nameEn": "YAN CHAI HOSPITAL CHIU TSANG HOK WAN PRIMARY SCHOOL",
    "type": "primary",
    "district": "葵青區",
    "website": "http://www.ychcthwps.edu.hk"
  },
  {
    "id": 57,
    "name": "柏立基教育學院校友會盧光輝紀念學校",
    "nameEn": "SIR ROBERT BLACK COLLEGE OF EDUCATION PAST STUDENTS' ASSOCIATION LU KWONG FAI MEMORIAL SCHOOL",
    "type": "primary",
    "district": "葵青區",
    "website": "http://www.lynms.edu.hk"
  },
  {
    "id": 58,
    "name": "保良局王賜豪(田心谷)小學",
    "nameEn": "PO LEUNG KUK DR. JIMMY WONG CHI-HO (TIN SUM VALLEY) PRIMARY SCHOOL",
    "type": "primary",
    "district": "沙田區",
    "website": "http://www.plkwch.edu.hk"
  },
  {
    "id": 59,
    "name": "寶覺小學",
    "nameEn": "PO KOK PRIMARY SCHOOL",
    "type": "primary",
    "district": "灣仔區",
    "website": "http://www.pokokps.edu.hk"
  },
  {
    "id": 60,
    "name": "通德學校",
    "nameEn": "TUNG TAK SCHOOL",
    "type": "primary",
    "district": "元朗區",
    "website": "http://www.ttsch.edu.hk"
  },
  {
    "id": 61,
    "name": "香港教育大學賽馬會小學",
    "nameEn": "THE EDUCATION UNIVERSITY OF HONG KONG JOCKEY CLUB PRIMARY SCHOOL",
    "type": "primary",
    "district": "大埔區",
    "website": "http://www.edujcps.edu.hk"
  },
  {
    "id": 62,
    "name": "中華基督教會基華小學",
    "nameEn": "THE CHURCH OF CHRIST IN CHINA KEI WA PRIMARY SCHOOL",
    "type": "primary",
    "district": "黃大仙區",
    "website": "http://www.keiwa.edu.hk"
  },
  {
    "id": 63,
    "name": "石籬聖若望天主教小學",
    "nameEn": "SHEK LEI ST. JOHN'S CATHOLIC PRIMARY SCHOOL",
    "type": "primary",
    "district": "葵青區",
    "website": "http://www.slsj.edu.hk"
  },
  {
    "id": 64,
    "name": "保良局西區婦女福利會馮李佩瑤小學",
    "nameEn": "PO LEUNG KUK WOMEN'S WELFARE CLUB WESTERN DISTRICT FUNG LEE PUI YIU PRIMARY SCHOOL",
    "type": "primary",
    "district": "屯門區",
    "website": "http://plkflpy.edu.hk"
  },
  {
    "id": 65,
    "name": "新界婦孺福利會基督教銘恩小學",
    "nameEn": "NEW TERRITORIES WOMEN & JUVENILES WELFARE ASSOCIATION CHRISTIAN REMEMBRANCE OF GRACE PRIMARY SCHOOL",
    "type": "primary",
    "district": "大埔區",
    "website": "http://taipocrgps.edu.hk"
  },
  {
    "id": 66,
    "name": "東華三院馬錦燦紀念小學",
    "nameEn": "TUNG WAH GROUP OF HOSPITALS MA KAM CHAN MEMORIAL PRIMARY SCHOOL",
    "type": "primary",
    "district": "北區",
    "website": "http://www.twghmkc.edu.hk"
  },
  {
    "id": 67,
    "name": "中華基督教會協和小學(長沙灣)",
    "nameEn": "THE CHURCH OF CHRIST IN CHINA HEEP WOH PRIMARY SCHOOL (CHEUNG SHA WAN)",
    "type": "primary",
    "district": "深水埗區",
    "website": "http://www.heepwohcsw.edu.hk"
  },
  {
    "id": 68,
    "name": "順德聯誼總會李金小學",
    "nameEn": "SHUN TAK FRATERNAL ASSOCIATION LEE KAM PRIMARY SCHOOL",
    "type": "primary",
    "district": "屯門區",
    "website": "http://www.leekamps.edu.hk"
  },
  {
    "id": 69,
    "name": "九龍塘天主教華德學校",
    "nameEn": "KOWLOON TONG BISHOP WALSH CATHOLIC SCHOOL",
    "type": "primary",
    "district": "九龍城區",
    "website": "http://www.ktbwcs.edu.hk"
  },
  {
    "id": 70,
    "name": "聖公會阮鄭夢芹銀禧小學",
    "nameEn": "S.K.H. YUEN CHEN MAUN CHEN JUBILEE PRIMARY SCHOOL",
    "type": "primary",
    "district": "大埔區",
    "website": "http://www.skhycmcj.edu.hk"
  },
  {
    "id": 71,
    "name": "道教青松小學(湖景邨)",
    "nameEn": "TAOIST CHING CHUNG PRIMARY SCHOOL (WU KING ESTATE)",
    "type": "primary",
    "district": "屯門區",
    "website": "http://www.tccpswke.edu.hk"
  },
  {
    "id": 72,
    "name": "深井天主教小學",
    "nameEn": "SHAM TSENG CATHOLIC PRIMARY SCHOOL",
    "type": "primary",
    "district": "荃灣區",
    "website": "http://www.stcpri.edu.hk"
  },
  {
    "id": 73,
    "name": "丹拿山循道學校",
    "nameEn": "CHINESE METHODIST SCHOOL, TANNER HILL",
    "type": "primary",
    "district": "東區",
    "website": "http://www.cmsth.edu.hk"
  },
  {
    "id": 74,
    "name": "佛教陳榮根紀念學校",
    "nameEn": "BUDDHIST CHAN WING KAN MEMORIAL SCHOOL",
    "type": "primary",
    "district": "元朗區",
    "website": "http://www.bcwkms.edu.hk"
  },
  {
    "id": 75,
    "name": "瑪利諾神父教會學校(小學部)",
    "nameEn": "MARYKNOLL FATHERS' SCHOOL (PRIMARY SECTION)",
    "type": "primary",
    "district": "深水埗區",
    "website": "http://www.mfsp.edu.hk"
  },
  {
    "id": 76,
    "name": "佐敦谷聖若瑟天主教小學",
    "nameEn": "JORDAN VALLEY ST. JOSEPH'S CATHOLIC PRIMARY SCHOOL",
    "type": "primary",
    "district": "觀塘區",
    "website": "http://www.jvsj.edu.hk"
  },
  {
    "id": 77,
    "name": "中華基督教會全完第二小學",
    "nameEn": "THE CHURCH OF CHRIST IN CHINA CHUEN YUEN SECOND PRIMARY SCHOOL",
    "type": "primary",
    "district": "葵青區",
    "website": "http://www.chuenyuen2.edu.hk"
  },
  {
    "id": 78,
    "name": "荃灣公立何傳耀紀念小學",
    "nameEn": "TSUEN WAN PUBLIC HO CHUEN YIU MEMORIAL PRIMARY SCHOOL",
    "type": "primary",
    "district": "荃灣區",
    "website": "http://www.twpsch.edu.hk"
  },
  {
    "id": 79,
    "name": "華德學校",
    "nameEn": "BISHOP WALSH PRIMARY SCHOOL",
    "type": "primary",
    "district": "黃大仙區",
    "website": "http://www.bishopwalsh.edu.hk"
  },
  {
    "id": 80,
    "name": "中華基督教會基全小學",
    "nameEn": "THE CHURCH OF CHRIST IN CHINA KEI TSUN PRIMARY SCHOOL",
    "type": "primary",
    "district": "油尖旺區",
    "website": "http://www.cccktps.edu.hk"
  },
  {
    "id": 81,
    "name": "循道學校",
    "nameEn": "METHODIST SCHOOL",
    "type": "primary",
    "district": "油尖旺區",
    "website": "http://www.kmsch.edu.hk"
  },
  {
    "id": 82,
    "name": "鮮魚行學校",
    "nameEn": "FRESH FISH TRADERS' SCHOOL",
    "type": "primary",
    "district": "油尖旺區",
    "website": "http://www.ffts.edu.hk"
  },
  {
    "id": 83,
    "name": "九龍婦女福利會李炳紀念學校",
    "nameEn": "KOWLOON WOMEN'S WELFARE CLUB LI PING MEMORIAL SCHOOL",
    "type": "primary",
    "district": "油尖旺區",
    "website": "http://www.kwwclpms.edu.hk"
  },
  {
    "id": 84,
    "name": "基督教香港信義會信愛學校",
    "nameEn": "THE EVANGELICAL LUTHERAN CHURCH OF HONG KONG FAITH LOVE LUTHERAN SCHOOL",
    "type": "primary",
    "district": "東區",
    "website": "http://www.cwflls.edu.hk"
  },
  {
    "id": 85,
    "name": "寶血小學",
    "nameEn": "PRECIOUS BLOOD PRIMARY SCHOOL",
    "type": "primary",
    "district": "灣仔區",
    "website": "http://www.preciousbloodhv.edu.hk"
  },
  {
    "id": 86,
    "name": "華富邨寶血小學",
    "nameEn": "PRECIOUS BLOOD PRIMARY SCHOOL (WAH FU ESTATE)",
    "type": "primary",
    "district": "南區",
    "website": "http://www.pbps.edu.hk"
  },
  {
    "id": 87,
    "name": "鳳溪第一小學",
    "nameEn": "FUNG KAI NO.1 PRIMARY SCHOOL",
    "type": "primary",
    "district": "北區",
    "website": "http://www.fk1ps.edu.hk"
  },
  {
    "id": 88,
    "name": "九龍靈光小學",
    "nameEn": "EMMANUEL PRIMARY SCHOOL, KOWLOON",
    "type": "primary",
    "district": "九龍城區",
    "website": "http://www.eps.edu.hk"
  },
  {
    "id": 89,
    "name": "中華基督教會元朗真光小學",
    "nameEn": "THE CHURCH OF CHRIST IN CHINA CHUN KWONG PRIMARY SCHOOL",
    "type": "primary",
    "district": "元朗區",
    "website": "http://www.ckps.edu.hk"
  },
  {
    "id": 90,
    "name": "循理會白普理基金循理小學",
    "nameEn": "FREE METHODIST BRADBURY CHUN LEI PRIMARY SCHOOL",
    "type": "primary",
    "district": "沙田區",
    "website": "http://www.chunlei.edu.hk"
  },
  {
    "id": 91,
    "name": "博愛醫院歷屆總理聯誼會鄭任安夫人學校",
    "nameEn": "THE ASSOCIATION OF DIRECTORS & FORMER DIRECTORS OF POK OI HOSPITAL LTD MRS CHENG YAM ON SCHOOL",
    "type": "primary",
    "district": "屯門區",
    "website": "http://www.mcyos.edu.hk"
  },
  {
    "id": 92,
    "name": "長洲聖心學校",
    "nameEn": "CHEUNG CHAU SACRED HEART SCHOOL",
    "type": "primary",
    "district": "離島區",
    "website": "http://www.ccshs.edu.hk"
  },
  {
    "id": 93,
    "name": "東華三院羅裕積小學",
    "nameEn": "TUNG WAH GROUP OF HOSPITALS LO YU CHIK PRIMARY SCHOOL",
    "type": "primary",
    "district": "油尖旺區",
    "website": "http://www.twghlycp.edu.hk"
  },
  {
    "id": 94,
    "name": "東華三院姚達之紀念小學(元朗)",
    "nameEn": "TUNG WAH GROUP OF HOSPITALS YIU DAK CHI MEMORIAL PRIMARY SCHOOL (YUEN LONG)",
    "type": "primary",
    "district": "元朗區",
    "website": "http://www.ydc.edu.hk"
  },
  {
    "id": 95,
    "name": "天佑小學",
    "nameEn": "MARY OF PROVIDENCE PRIMARY SCHOOL",
    "type": "primary",
    "district": "荃灣區",
    "website": "http://www.mpschool.edu.hk"
  },
  {
    "id": 96,
    "name": "聖公會基榮小學",
    "nameEn": "S.K.H. KEI WING PRIMARY SCHOOL",
    "type": "primary",
    "district": "油尖旺區",
    "website": "http://www.skhkwps.edu.hk"
  },
  {
    "id": 97,
    "name": "聖公會蒙恩小學",
    "nameEn": "S.K.H. MUNG YAN PRIMARY SCHOOL",
    "type": "primary",
    "district": "屯門區",
    "website": "http://www.skhmungyanps.edu.hk"
  },
  {
    "id": 98,
    "name": "聖公會榮真小學",
    "nameEn": "S.K.H. WING CHUN PRIMARY SCHOOL",
    "type": "primary",
    "district": "北區",
    "website": "http://www.skhwc.edu.hk"
  },
  {
    "id": 99,
    "name": "港澳信義會黃陳淑英紀念學校",
    "nameEn": "HONG KONG AND MACAU LUTHERAN CHURCH WONG CHAN SOOK YING MEMORIAL SCHOOL",
    "type": "primary",
    "district": "元朗區",
    "website": "http://www.wcsy.edu.hk"
  },
  {
    "id": 100,
    "name": "將軍澳天主教小學",
    "nameEn": "TSEUNG KWAN O CATHOLIC PRIMARY SCHOOL",
    "type": "primary",
    "district": "西貢區",
    "website": "http://www.tkocps.edu.hk"
  }
]